NORAD_CAT_ID,OBJECT_NAME,OBJECT_TYPE,EPOCH,MEAN_MOTION,ECCENTRICITY,INCLINATION,RA_OF_ASC_NODE,ARG_OF_PERICENTER,MEAN_ANOMALY,BSTAR,MEAN_MOTION_DOT,MEAN_MOTION_DDOT,TLE_LINE0,TLE_LINE1,TLE_LINE2,SEMIMAJOR_AXIS,PERIOD,APOGEE,PERIGEE,DECAYED
53974.0,STARLINK-5159,PAYLOAD,2024-02-28 08:35:39,15.08845179,0.0001316,53.2176,287.2027,89.6329,270.4814,2.2417e-05,6.9e-07,0.0,0 STARLINK-5159,1 53974U 22125L   24059.35809743  .00000069  00000-0  22417-4 0  9994,2 53974  53.2176 287.2027 0001316  89.6329 270.4814 15.08845179 77840,6917.865,95.437,540.64,538.819,0.0
53974.0,STARLINK-5159,PAYLOAD,2024-02-28 19:43:21,15.08839114,0.0001265,53.2172,285.1214,86.78,273.3337,0.0001102,1.466e-05,0.0,0 STARLINK-5159,1 53974U 22125L   24059.82178191  .00001466  00000-0  11020-3 0  9991,2 53974  53.2172 285.1214 0001265  86.7800 273.3337 15.08839114 77985,6917.883,95.438,540.623,538.873,0.0
53974.0,STARLINK-5159,PAYLOAD,2024-02-28 21:18:44,15.0884073,0.0001273,53.2168,284.8241,87.0689,273.0449,0.00012058,1.632e-05,0.0,0 STARLINK-5159,1 53974U 22125L   24059.88802067  .00001632  00000-0  12058-3 0  9990,2 53974  53.2168 284.8241 0001273  87.0689 273.0449 15.08840730 77925,6917.878,95.438,540.624,538.863,0.0
53974.0,STARLINK-5159,PAYLOAD,2024-02-29 14:47:59,15.08845995,8.39e-05,53.2165,281.553,90.624,269.4848,1.1359e-05,-1.07e-06,0.0,0 STARLINK-5159,1 53974U 22125L   24060.61665767 -.00000107  00000-0  11359-4 0  9998,2 53974  53.2165 281.5530 0000839  90.6240 269.4848 15.08845995 78030,6917.862,95.437,540.307,539.147,0.0
53974.0,STARLINK-5159,PAYLOAD,2024-02-29 21:09:32,15.0878411,8.89e-05,53.2167,280.3654,116.9096,243.1987,0.00093505,0.00014602,0.0,0 STARLINK-5159,1 53974U 22125L   24060.88162933  .00014602  00000-0  93505-3 0  9990,2 53974  53.2167 280.3654 0000889 116.9096 243.1987 15.08784110 78070,6918.051,95.441,540.531,539.301,0.0
53974.0,STARLINK-5159,PAYLOAD,2024-03-01 00:20:19,15.0878528,9.36e-05,53.2165,279.7692,118.8108,241.2978,0.0010163,0.00015899,0.0,0 STARLINK-5159,1 53974U 22125L   24061.01411043  .00015899  00000-0  10163-2 0  9992,2 53974  53.2165 279.7692 0000936 118.8108 241.2978 15.08785280 78168,6918.048,95.441,540.56,539.265,0.0
53974.0,STARLINK-5159,PAYLOAD,2024-03-01 14:38:46,15.08837738,0.0001194,53.2163,277.0946,88.6473,271.4656,3.6969e-05,3.01e-06,0.0,0 STARLINK-5159,1 53974U 22125L   24061.61026383  .00000301  00000-0  36969-4 0  9993,2 53974  53.2163 277.0946 0001194  88.6473 271.4656 15.08837738 78181,6917.887,95.438,540.578,538.926,0.0
53974.0,STARLINK-5159,PAYLOAD,2024-03-01 19:24:55,15.08841332,0.0001286,53.2176,276.2015,97.4615,262.6524,5.1119e-05,5.26e-06,0.0,0 STARLINK-5159,1 53974U 22125L   24061.80898128  .00000526  00000-0  51119-4 0  9991,2 53974  53.2176 276.2015 0001286  97.4615 262.6524 15.08841332 78283,6917.876,95.437,540.631,538.852,0.0
53974.0,STARLINK-5159,PAYLOAD,2024-03-02 19:15:43,15.08840172,0.0001324,53.2164,271.7419,93.489,266.6254,4.7264e-05,4.64e-06,0.0,0 STARLINK-5159,1 53974U 22125L   24062.80258326  .00000464  00000-0  47264-4 0  9999,2 53974  53.2164 271.7419 0001324  93.4890 266.6254 15.08840172 78366,6917.88,95.438,540.661,538.829,0.0
53974.0,STARLINK-5159,PAYLOAD,2024-03-03 12:44:58,15.08834114,0.0001406,53.2165,268.4717,99.4812,260.6339,8.8212e-05,1.116e-05,0.0,0 STARLINK-5159,1 53974U 22125L   24063.53122799  .00001116  00000-0  88212-4 0  9997,2 53974  53.2165 268.4717 0001406  99.4812 260.6339 15.08834114 78549,6917.898,95.438,540.736,538.791,0.0
53974.0,STARLINK-5159,PAYLOAD,2024-03-03 19:06:30,15.08836479,0.0001398,53.2166,267.2824,103.1969,256.9179,5.6697e-05,6.14e-06,0.0,0 STARLINK-5159,1 53974U 22125L   24063.79618758  .00000614  00000-0  56697-4 0  9994,2 53974  53.2166 267.2824 0001398 103.1969 256.9179 15.08836479 78515,6917.891,95.438,540.723,538.789,0.0
53974.0,STARLINK-5159,PAYLOAD,2024-03-03 23:52:39,15.08845304,0.0001217,53.2157,266.3863,87.7144,272.3987,0.00011044,1.47e-05,0.0,0 STARLINK-5159,1 53974U 22125L   24063.99490073  .00001470  00000-0  11044-3 0  9991,2 53974  53.2157 266.3863 0001217  87.7144 272.3987 15.08845304 78617,6917.864,95.437,540.571,538.887,0.0
53974.0,STARLINK-5159,PAYLOAD,2024-03-04 06:14:12,15.08843856,0.0001215,53.2156,265.1965,81.0339,279.0791,0.00011991,1.621e-05,0.0,0 STARLINK-5159,1 53974U 22125L   24064.25986130  .00001621  00000-0  11991-3 0  9994,2 53974  53.2156 265.1965 0001215  81.0339 279.0791 15.08843856 78580,6917.869,95.437,540.574,538.893,0.0
53974.0,STARLINK-5159,PAYLOAD,2024-03-04 20:32:39,15.08846739,0.0001256,53.2158,262.5203,81.8149,278.2986,0.00012928,1.771e-05,0.0,0 STARLINK-5159,1 53974U 22125L   24064.85601801  .00001771  00000-0  12928-3 0  9996,2 53974  53.2158 262.5203 0001256  81.8149 278.2986 15.08846739 78670,6917.86,95.437,540.594,538.856,0.0
53974.0,STARLINK-5159,PAYLOAD,2024-03-05 20:23:27,15.08839839,0.0001212,53.2163,258.0597,89.0385,271.0746,7.3749e-06,-1.7e-06,0.0,0 STARLINK-5159,1 53974U 22125L   24065.84962733 -.00000170  00000-0  73749-5 0  9993,2 53974  53.2163 258.0597 0001212  89.0385 271.0746 15.08839839 78898,6917.881,95.438,540.584,538.907,0.0
53974.0,STARLINK-5159,PAYLOAD,2024-03-06 12:17:19,15.08833563,2.25e-05,53.2166,255.0876,148.642,211.4586,-1.5189e-05,-5.29e-06,0.0,0 STARLINK-5159,1 53974U 22125L   24066.51202895 -.00000529  00000-0 -15189-4 0  9996,2 53974  53.2166 255.0876 0000225 148.6420 211.4586 15.08833563 78925,6917.9,95.438,539.921,539.609,0.0
53974.0,STARLINK-5159,PAYLOAD,2024-03-06 20:14:15,15.08808358,0.0001631,53.217,253.6035,92.1091,268.0088,0.00042131,6.418e-05,0.0,0 STARLINK-5159,1 53974U 22125L   24066.84323708  .00006418  00000-0  42131-3 0  9996,2 53974  53.2170 253.6035 0001631  92.1091 268.0088 15.08808358 79043,6917.977,95.44,540.97,538.714,0.0
53974.0,STARLINK-5159,PAYLOAD,2024-03-07 12:08:06,15.08805136,0.0001381,53.2165,250.6274,101.0336,259.0811,0.00057746,8.906e-05,0.0,0 STARLINK-5159,1 53974U 22125L   24067.50562851  .00008906  00000-0  57746-3 0  9996,2 53974  53.2165 250.6274 0001381 101.0336 259.0811 15.08805136 79071,6917.987,95.44,540.807,538.897,0.0
53974.0,STARLINK-5159,PAYLOAD,2024-03-08 11:58:53,15.08829534,0.0001338,53.2162,246.1673,93.2768,266.8377,0.00023024,3.377e-05,0.0,0 STARLINK-5159,1 53974U 22125L   24068.49923123  .00003377  00000-0  23024-3 0  9997,2 53974  53.2162 246.1673 0001338  93.2768 266.8377 15.08829534 79299,6917.912,95.438,540.703,538.852,0.0
53974.0,STARLINK-5159,PAYLOAD,2024-03-08 21:31:11,15.0884469,0.0001382,53.2167,244.3819,102.5897,257.525,7.9766e-05,9.82e-06,0.0,0 STARLINK-5159,1 53974U 22125L   24068.89666366  .00000982  00000-0  79766-4 0  9998,2 53974  53.2167 244.3819 0001382 102.5897 257.5250 15.08844690 79288,6917.866,95.437,540.687,538.775,0.0
53974.0,STARLINK-5159,PAYLOAD,2024-03-09 18:11:13,15.0883796,0.0001432,53.2167,240.5158,90.678,269.4376,-3.7674e-05,-8.87e-06,0.0,0 STARLINK-5159,1 53974U 22125L   24069.75779228 -.00000887  00000-0 -37674-4 0  9994,2 53974  53.2167 240.5158 0001432  90.6780 269.4376 15.08837960 79481,6917.887,95.438,540.742,538.761,0.0
53974.0,STARLINK-5159,PAYLOAD,2024-03-09 21:21:59,15.08837239,0.0001518,53.2165,239.9221,92.0999,268.0167,-2.1442e-05,-6.29e-06,0.0,0 STARLINK-5159,1 53974U 22125L   24069.89027253 -.00000629  00000-0 -21442-4 0  9993,2 53974  53.2165 239.9221 0001518  92.0999 268.0167 15.08837239 79432,6917.889,95.438,540.804,538.704,0.0
53974.0,STARLINK-5159,PAYLOAD,2024-03-10 10:05:04,15.08834738,0.0001485,53.215,237.5417,89.8701,270.2461,-1.6503e-05,-5.51e-06,0.0,0 STARLINK-5159,1 53974U 22125L   24070.42019553 -.00000551  00000-0 -16503-4 0  9994,2 53974  53.2150 237.5417 0001485  89.8701 270.2461 15.08834738 79517,6917.896,95.438,540.789,538.734,0.0
53974.0,STARLINK-5159,PAYLOAD,2024-03-10 18:02:00,15.08838313,0.0001362,53.2121,236.0554,88.1651,271.9497,2.2e-05,6.2e-07,0.0,0 STARLINK-5159,1 53974U 22125L   24070.75139209  .00000062  00000-0  22000-4 0  9995,2 53974  53.2121 236.0554 0001362  88.1651 271.9497 15.08838313 79566,6917.886,95.438,540.693,538.808,0.0
53974.0,STARLINK-5159,PAYLOAD,2024-03-11 03:34:18,15.08848038,0.0001117,53.2123,234.2711,86.8986,273.2133,-8.3219e-05,-1.612e-05,0.0,0 STARLINK-5159,1 53974U 22125L   24071.14882846 -.00001612  00000-0 -83219-4 0  9994,2 53974  53.2123 234.2711 0001117  86.8986 273.2133 15.08848038 79698,6917.856,95.437,540.494,538.948,0.0
53974.0,STARLINK-5159,PAYLOAD,2024-03-11 17:52:47,15.08836704,8.4e-05,53.2133,231.5952,70.3883,289.72,0.00014509,2.022e-05,0.0,0 STARLINK-5159,1 53974U 22125L   24071.74499156  .00002022  00000-0  14509-3 0  9997,2 53974  53.2133 231.5952 0000840  70.3883 289.7200 15.08836704 79786,6917.89,95.438,540.337,539.174,0.0
53974.0,STARLINK-5159,PAYLOAD,2024-03-12 19:18:57,15.08843907,0.0001068,53.2109,226.8346,40.6726,319.4346,1.9795e-05,2.7e-07,0.0,0 STARLINK-5159,1 53974U 22125L   24072.80483197  .00000027  00000-0  19795-4 0  9999,2 53974  53.2109 226.8346 0001068  40.6726 319.4346 15.08843907 79877,6917.868,95.437,540.472,538.995,0.0
53974.0,STARLINK-5159,PAYLOAD,2024-03-13 03:15:53,15.08839786,0.0001156,53.2127,225.3494,82.1994,277.9129,3.458e-05,2.63e-06,0.0,0 STARLINK-5159,1 53974U 22125L   24073.13603438  .00000263  00000-0  34580-4 0  9999,2 53974  53.2127 225.3494 0001156  82.1994 277.9129 15.08839786 79991,6917.881,95.438,540.546,538.946,0.0
53974.0,STARLINK-5159,PAYLOAD,2024-03-13 09:37:25,15.08839406,0.0001175,53.2121,224.1596,82.3879,277.7247,2.9406e-05,1.8e-06,0.0,0 STARLINK-5159,1 53974U 22125L   24073.40099463  .00000180  00000-0  29406-4 0  9995,2 53974  53.2121 224.1596 0001175  82.3879 277.7247 15.08839406 79965,6917.882,95.438,540.56,538.934,0.0
53974.0,STARLINK-5159,PAYLOAD,2024-03-13 15:58:58,15.08840511,0.000107,53.2112,222.9702,82.8144,277.297,4.5963e-05,4.44e-06,0.0,0 STARLINK-5159,1 53974U 22125L   24073.66595328  .00000444  00000-0  45963-4 0  9993,2 53974  53.2112 222.9702 0001070  82.8144 277.2970 15.08840511 80008,6917.879,95.438,540.484,539.004,0.0
